<?xml version="1.0" encoding="UTF-8"?>
<osm version="0.6" generator="Overpass API 0.7.62.8 e802775f">
<note>The data included in this document is from www.openstreetmap.org. The data is made available under ODbL.</note>
<meta osm_base="2025-12-05T03:10:44Z" areas="2025-12-04T22:35:46Z"/>

  <node id="26695130" lat="45.8928549" lon="6.7113338" version="16" timestamp="2024-12-08T21:53:10Z" changeset="160071455" uid="507417" user="tartiflex">
    <tag k="addr:postcode" v="74170"/>
    <tag k="name" v="Saint-Gervais-les-Bains"/>
    <tag k="name:frp" v="San-Zharvé"/>
    <tag k="name:zh" v="圣热尔韦莱班"/>
    <tag k="place" v="village"/>
    <tag k="population" v="5602"/>
    <tag k="population:date" v="2021"/>
    <tag k="source:population" v="INSEE 2024"/>
    <tag k="wikidata" v="Q534206"/>
    <tag k="wikipedia" v="fr:Saint-Gervais-les-Bains"/>
  </node>
  <node id="26696275" lat="45.9246705" lon="6.8727506" version="52" timestamp="2025-09-09T16:15:53Z" changeset="171694784" uid="12495047" user="Yan Bakhmat">
    <tag k="alt_name" v="Chamonix"/>
    <tag k="alt_name:frp" v="Chamônix"/>
    <tag k="loc_name" v="Cham"/>
    <tag k="name" v="Chamonix-Mont-Blanc"/>
    <tag k="name:frp" v="Shamouni"/>
    <tag k="name:ja" v="シャモニー＝モン＝ブラン"/>
    <tag k="name:ko" v="샤모니-몽-블렁"/>
    <tag k="name:ru" v="Шамони-Мон-Блан"/>
    <tag k="name:uk" v="Шамоні-Мон-Блан"/>
    <tag k="name:zh" v="霞慕尼"/>
    <tag k="old_name" v="Chamouny"/>
    <tag k="place" v="town"/>
    <tag k="population" v="8642"/>
    <tag k="population:date" v="2021"/>
    <tag k="postal_code" v="74400"/>
    <tag k="source:population" v="INSEE 2024"/>
    <tag k="wikidata" v="Q83236"/>
  </node>
  <node id="63621766" lat="44.8207134" lon="8.8916301" version="5" timestamp="2023-01-17T20:03:31Z" changeset="131393953" uid="145231" user="woodpeck_repair">
    <tag k="gfoss_id" v="981"/>
    <tag k="name" v="Paderna"/>
    <tag k="place" v="village"/>
    <tag k="population" v="243"/>
    <tag k="source" v="geodati.gfoss.it"/>
  </node>
  <node id="63621785" lat="44.8119711" lon="9.0477233" version="7" timestamp="2024-11-11T20:32:22Z" changeset="159025375" uid="13986573" user="dombul">
    <tag k="gfoss_id" v="881"/>
    <tag k="name" v="Brignano-Frascata"/>
    <tag k="place" v="village"/>
    <tag k="population" v="423"/>
    <tag k="wikidata" v="Q17290"/>
  </node>
  <node id="63621890" lat="44.8417760" lon="8.9630083" version="5" timestamp="2023-01-17T19:52:54Z" changeset="131393953" uid="145231" user="woodpeck_repair">
    <tag k="gfoss_id" v="964"/>
    <tag k="name" v="Montegioco"/>
    <tag k="place" v="village"/>
    <tag k="population" v="306"/>
    <tag k="source" v="geodati.gfoss.it"/>
  </node>
  <node id="63621980" lat="44.6582837" lon="8.8315737" version="5" timestamp="2023-01-17T20:02:40Z" changeset="131393953" uid="145231" user="woodpeck_repair">
    <tag k="gfoss_id" v="892"/>
    <tag k="name" v="Carrosio"/>
    <tag k="place" v="village"/>
    <tag k="population" v="465"/>
    <tag k="source" v="geodati.gfoss.it"/>
  </node>
  <node id="63622091" lat="44.8384452" lon="9.0353171" version="7" timestamp="2024-09-01T10:22:43Z" changeset="156047667" uid="13857163" user="ulore22">
    <tag k="gfoss_id" v="955"/>
    <tag k="name" v="Momperone"/>
    <tag k="place" v="village"/>
    <tag k="population" v="201"/>
    <tag k="source" v="geodati.gfoss.it"/>
    <tag k="wikidata" v="Q17388"/>
  </node>
  <node id="63622188" lat="44.8483380" lon="8.9936102" version="5" timestamp="2023-01-17T19:53:33Z" changeset="131393953" uid="145231" user="woodpeck_repair">
    <tag k="gfoss_id" v="965"/>
    <tag k="name" v="Montemarzino"/>
    <tag k="place" v="village"/>
    <tag k="population" v="352"/>
    <tag k="source" v="geodati.gfoss.it"/>
  </node>
  <node id="63622238" lat="44.9437992" lon="8.6701395" version="7" timestamp="2023-01-17T20:06:39Z" changeset="131393953" uid="145231" user="woodpeck_repair">
    <tag k="gfoss_id" v="986"/>
    <tag k="name" v="Pietra Marazzi"/>
    <tag k="place" v="village"/>
    <tag k="population" v="932"/>
    <tag k="source" v="geodati.gfoss.it"/>
  </node>
  <node id="63622350" lat="44.7255798" lon="8.8547001" version="26" timestamp="2023-08-21T19:40:11Z" changeset="140198197" uid="19233464" user="secondaryhighway">
    <tag k="gfoss_id" v="1017"/>
    <tag k="name" v="Serravalle Scrivia"/>
    <tag k="name:ru" v="Серравалле-Скривия"/>
    <tag k="place" v="village"/>
    <tag k="population" v="5820"/>
    <tag k="source" v="geodati.gfoss.it"/>
  </node>
  <node id="63622370" lat="44.7858161" lon="9.0646537" version="6" timestamp="2024-09-01T10:22:43Z" changeset="156047667" uid="13857163" user="ulore22">
    <tag k="gfoss_id" v="1012"/>
    <tag k="name" v="San Sebastiano Curone"/>
    <tag k="place" v="village"/>
    <tag k="population" v="543"/>
    <tag k="source" v="geodati.gfoss.it"/>
    <tag k="wikidata" v="Q17664"/>
  </node>
  <node id="63622406" lat="44.5431410" lon="8.3339460" version="5" timestamp="2023-01-17T19:55:26Z" changeset="131393953" uid="145231" user="woodpeck_repair">
    <tag k="gfoss_id" v="1022"/>
    <tag k="name" v="Spigno Monferrato"/>
    <tag k="place" v="village"/>
    <tag k="population" v="1216"/>
    <tag k="source" v="geodati.gfoss.it"/>
    <tag k="wikidata" v="Q30030874"/>
  </node>
  <node id="63622421" lat="44.6922480" lon="8.7501520" version="4" timestamp="2023-01-17T20:03:53Z" changeset="131393953" uid="145231" user="woodpeck_repair">
    <tag k="gfoss_id" v="1009"/>
    <tag k="name" v="San Cristoforo"/>
    <tag k="place" v="village"/>
    <tag k="population" v="575"/>
    <tag k="source" v="geodati.gfoss.it"/>
  </node>
  <node id="63622429" lat="44.9806560" lon="8.8093480" version="4" timestamp="2023-01-17T20:07:13Z" changeset="131393953" uid="145231" user="woodpeck_repair">
    <tag k="gfoss_id" v="1008"/>
    <tag k="name" v="Sale"/>
    <tag k="place" v="village"/>
    <tag k="population" v="4246"/>
    <tag k="source" v="geodati.gfoss.it"/>
  </node>
  <node id="63622447" lat="44.6714470" lon="8.6484500" version="5" timestamp="2023-01-17T20:01:17Z" changeset="131393953" uid="145231" user="woodpeck_repair">
    <tag k="gfoss_id" v="1004"/>
    <tag k="name" v="Rocca Grimalda"/>
    <tag k="place" v="village"/>
    <tag k="population" v="1346"/>
    <tag k="source" v="geodati.gfoss.it"/>
    <tag k="wikidata" v="Q30029445"/>
  </node>
  <node id="63622502" lat="44.7285490" lon="8.7715520" version="4" timestamp="2023-01-17T20:03:23Z" changeset="131393953" uid="145231" user="woodpeck_repair">
    <tag k="gfoss_id" v="1027"/>
    <tag k="name" v="Tassarolo"/>
    <tag k="place" v="village"/>
    <tag k="population" v="611"/>
    <tag k="source" v="geodati.gfoss.it"/>
  </node>
  <node id="63622540" lat="44.8373530" lon="8.8737520" version="5" timestamp="2023-01-17T19:56:43Z" changeset="131393953" uid="145231" user="woodpeck_repair">
    <tag k="gfoss_id" v="1023"/>
    <tag k="name" v="Spineto Scrivia"/>
    <tag k="place" v="village"/>
    <tag k="population" v="322"/>
    <tag k="source" v="geodati.gfoss.it"/>
    <tag k="wikidata" v="Q30030884"/>
  </node>
  <node id="63622574" lat="44.7023510" lon="9.0661580" version="4" timestamp="2023-01-17T19:54:16Z" changeset="131393953" uid="145231" user="woodpeck_repair">
    <tag k="gfoss_id" v="859"/>
    <tag k="name" v="Albera Ligure"/>
    <tag k="place" v="village"/>
    <tag k="population" v="357"/>
    <tag k="source" v="geodati.gfoss.it"/>
  </node>
  <node id="63622591" lat="45.0016337" lon="8.7346236" version="7" timestamp="2023-01-17T20:06:12Z" changeset="131393953" uid="145231" user="woodpeck_repair">
    <tag k="ele" v="96"/>
    <tag k="gfoss_id" v="870"/>
    <tag k="name" v="Bassignana"/>
    <tag k="place" v="village"/>
    <tag k="population" v="1737"/>
    <tag k="postal_code" v="15042"/>
    <tag k="ref:ISTAT" v="006013"/>
    <tag k="source" v="geodati.gfoss.it"/>
  </node>
  <node id="63622725" lat="44.8255510" lon="8.6772480" version="4" timestamp="2023-01-17T19:55:07Z" changeset="131393953" uid="145231" user="woodpeck_repair">
    <tag k="gfoss_id" v="878"/>
    <tag k="name" v="Bosco Marengo"/>
    <tag k="place" v="village"/>
    <tag k="population" v="2494"/>
    <tag k="source" v="geodati.gfoss.it"/>
  </node>
  <node id="63622729" lat="44.6737510" lon="9.0957600" version="4" timestamp="2023-01-17T19:59:00Z" changeset="131393953" uid="145231" user="woodpeck_repair">
    <tag k="gfoss_id" v="882"/>
    <tag k="name" v="Cabella Ligure"/>
    <tag k="place" v="village"/>
    <tag k="population" v="641"/>
    <tag k="source" v="geodati.gfoss.it"/>
  </node>
  <node id="63622915" lat="44.9494522" lon="8.6857406" version="6" timestamp="2023-01-17T20:00:26Z" changeset="131393953" uid="145231" user="woodpeck_repair">
    <tag k="gfoss_id" v="962"/>
    <tag k="name" v="Montecastello"/>
    <tag k="place" v="village"/>
    <tag k="population" v="340"/>
    <tag k="source" v="geodati.gfoss.it"/>
    <tag k="wikidata" v="Q30027794"/>
  </node>
  <node id="63622967" lat="44.5593420" lon="8.4131470" version="4" timestamp="2023-01-17T19:56:26Z" changeset="131393953" uid="145231" user="woodpeck_repair">
    <tag k="gfoss_id" v="947"/>
    <tag k="name" v="Malvicino"/>
    <tag k="place" v="village"/>
    <tag k="population" v="121"/>
    <tag k="source" v="geodati.gfoss.it"/>
  </node>
  <node id="63623016" lat="44.5187975" lon="8.2980764" version="5" timestamp="2023-01-17T20:06:47Z" changeset="131393953" uid="145231" user="woodpeck_repair">
    <tag k="gfoss_id" v="950"/>
    <tag k="name" v="Merana"/>
    <tag k="place" v="village"/>
    <tag k="population" v="185"/>
    <tag k="source" v="geodati.gfoss.it"/>
  </node>
  <node id="63625542" lat="44.4676370" lon="8.0882420" version="4" timestamp="2023-01-17T19:50:29Z" changeset="131393953" uid="145231" user="woodpeck_repair">
    <tag k="gfoss_id" v="613"/>
    <tag k="name" v="Mombarcaro"/>
    <tag k="place" v="village"/>
    <tag k="population" v="320"/>
    <tag k="source" v="geodati.gfoss.it"/>
  </node>
  <node id="63625575" lat="44.7692440" lon="8.0701360" version="5" timestamp="2023-01-17T19:50:01Z" changeset="131393953" uid="145231" user="woodpeck_repair">
    <tag k="gfoss_id" v="602"/>
    <tag k="name" v="Magliano Alfieri"/>
    <tag k="place" v="village"/>
    <tag k="population" v="1674"/>
    <tag k="source" v="geodati.gfoss.it"/>
    <tag k="wikidata" v="Q30026846"/>
  </node>
  <node id="63625725" lat="44.3318340" lon="8.0855440" version="4" timestamp="2021-08-28T06:03:59Z" changeset="110367151" uid="9006927" user="francians">
    <tag k="gfoss_id" v="651"/>
    <tag k="name" v="Perlo"/>
    <tag k="place" v="hamlet"/>
    <tag k="population" v="130"/>
    <tag k="source" v="geodati.gfoss.it"/>
    <tag k="wikidata" v="Q30028722"/>
  </node>
  <node id="63625807" lat="44.6003390" lon="8.0199380" version="5" timestamp="2023-01-17T19:51:18Z" changeset="131393953" uid="145231" user="woodpeck_repair">
    <tag k="gfoss_id" v="709"/>
    <tag k="name" v="Sinio"/>
    <tag k="place" v="village"/>
    <tag k="population" v="461"/>
    <tag k="source" v="geodati.gfoss.it"/>
    <tag k="wikidata" v="Q30030732"/>
  </node>
  <node id="63625922" lat="44.4133360" lon="8.1686440" version="5" timestamp="2023-01-17T19:47:33Z" changeset="131393953" uid="145231" user="woodpeck_repair">
    <tag k="gfoss_id" v="690"/>
    <tag k="name" v="Saliceto"/>
    <tag k="place" v="village"/>
    <tag k="population" v="1500"/>
    <tag k="source" v="geodati.gfoss.it"/>
    <tag k="wikidata" v="Q30029720"/>
  </node>
  <node id="63625998" lat="44.5627400" lon="8.1544410" version="4" timestamp="2023-01-17T19:44:43Z" changeset="131393953" uid="145231" user="woodpeck_repair">
    <tag k="gfoss_id" v="715"/>
    <tag k="name" v="Torre Bormida"/>
    <tag k="place" v="village"/>
    <tag k="population" v="232"/>
    <tag k="source" v="geodati.gfoss.it"/>
  </node>
  <node id="63626138" lat="44.5993410" lon="8.2130420" version="4" timestamp="2023-01-17T19:50:20Z" changeset="131393953" uid="145231" user="woodpeck_repair">
    <tag k="gfoss_id" v="650"/>
    <tag k="name" v="Perletto"/>
    <tag k="place" v="village"/>
    <tag k="population" v="328"/>
    <tag k="source" v="geodati.gfoss.it"/>
  </node>
  <node id="63626221" lat="44.4746494" lon="8.0213361" version="6" timestamp="2023-07-15T17:50:17Z" changeset="138554095" uid="14257573" user="toponomastica_comune_arenzano">
    <tag k="gfoss_id" v="634"/>
    <tag k="name" v="Murazzano"/>
    <tag k="place" v="village"/>
    <tag k="population" v="856"/>
    <tag k="source" v="geodati.gfoss.it"/>
    <tag k="wikidata" v="Q30028114"/>
  </node>
  <node id="63626300" lat="44.3333330" lon="7.9864420" version="5" timestamp="2023-01-17T19:46:57Z" changeset="131393953" uid="145231" user="woodpeck_repair">
    <tag k="gfoss_id" v="705"/>
    <tag k="name" v="Scagnello"/>
    <tag k="place" v="village"/>
    <tag k="population" v="209"/>
    <tag k="source" v="geodati.gfoss.it"/>
    <tag k="wikidata" v="Q30030468"/>
  </node>
  <node id="63626414" lat="44.6108408" lon="7.9428448" version="6" timestamp="2023-01-17T19:49:06Z" changeset="131393953" uid="145231" user="woodpeck_repair">
    <tag k="gfoss_id" v="502"/>
    <tag k="name" v="Barolo"/>
    <tag k="place" v="village"/>
    <tag k="population" v="681"/>
    <tag k="source" v="geodati.gfoss.it"/>
    <tag k="wikidata" v="Q30022617"/>
  </node>
  <node id="63626442" lat="44.3198330" lon="8.0109430" version="5" timestamp="2023-01-17T19:44:20Z" changeset="131393953" uid="145231" user="woodpeck_repair">
    <tag k="gfoss_id" v="504"/>
    <tag k="name" v="Battifollo"/>
    <tag k="place" v="village"/>
    <tag k="population" v="263"/>
    <tag k="source" v="geodati.gfoss.it"/>
    <tag k="wikidata" v="Q30022663"/>
  </node>
  <node id="63626475" lat="44.3013330" lon="8.0431440" version="5" timestamp="2023-01-17T19:49:36Z" changeset="131393953" uid="145231" user="woodpeck_repair">
    <tag k="gfoss_id" v="497"/>
    <tag k="name" v="Bagnasco"/>
    <tag k="place" v="village"/>
    <tag k="population" v="1012"/>
    <tag k="source" v="geodati.gfoss.it"/>
    <tag k="wikidata" v="Q30022497"/>
  </node>
  <node id="63626770" lat="44.7884430" lon="7.9409330" version="4" timestamp="2023-01-17T19:48:41Z" changeset="131393953" uid="145231" user="woodpeck_repair">
    <tag k="gfoss_id" v="703"/>
    <tag k="name" v="Santo Stefano Roero"/>
    <tag k="place" v="village"/>
    <tag k="population" v="1236"/>
    <tag k="source" v="geodati.gfoss.it"/>
  </node>
  <node id="63626820" lat="44.4336390" lon="8.0367451" version="5" timestamp="2023-01-17T19:43:54Z" changeset="131393953" uid="145231" user="woodpeck_repair">
    <tag k="gfoss_id" v="718"/>
    <tag k="name" v="Torresina"/>
    <tag k="place" v="village"/>
    <tag k="population" v="67"/>
    <tag k="source" v="geodati.gfoss.it"/>
  </node>
  <node id="63627333" lat="44.4601370" lon="8.1675440" version="5" timestamp="2023-01-17T19:45:18Z" changeset="131393953" uid="145231" user="woodpeck_repair">
    <tag k="gfoss_id" v="587"/>
    <tag k="name" v="Gottasecca"/>
    <tag k="place" v="village"/>
    <tag k="population" v="188"/>
    <tag k="source" v="geodati.gfoss.it"/>
    <tag k="wikidata" v="Q30026175"/>
  </node>
  <node id="63628241" lat="44.5382390" lon="8.1550420" version="4" timestamp="2023-01-17T19:46:07Z" changeset="131393953" uid="145231" user="woodpeck_repair">
    <tag k="gfoss_id" v="598"/>
    <tag k="name" v="Levice"/>
    <tag k="place" v="village"/>
    <tag k="population" v="270"/>
    <tag k="source" v="geodati.gfoss.it"/>
  </node>
  <node id="63628561" lat="45.1420677" lon="7.0644111" version="9" timestamp="2024-01-18T21:51:09Z" changeset="146421987" uid="3464634" user="Marco Caparello">
    <tag k="gfoss_id" v="154"/>
    <tag k="name" v="Mompantero"/>
    <tag k="name:fr" v="Montpantier"/>
    <tag k="name:frp" v="Moumpantìa"/>
    <tag k="name:pms" v="Mompantè"/>
    <tag k="place" v="village"/>
    <tag k="population" v="668"/>
    <tag k="source" v="geodati.gfoss.it"/>
  </node>
  <node id="67273444" lat="38.9962900" lon="16.5796040" version="3" timestamp="2025-02-04T12:39:23Z" changeset="162123816" uid="43207" user="kdkeller">
    <tag k="gfoss_id" v="6667"/>
    <tag k="name" v="Fossato Serralta"/>
    <tag k="place" v="village"/>
    <tag k="population" v="660"/>
    <tag k="source" v="geodati.gfoss.it"/>
    <tag k="wikidata" v="Q30025850"/>
  </node>
  <node id="67273465" lat="39.0133900" lon="16.6279040" version="3" timestamp="2025-02-04T12:39:24Z" changeset="162123816" uid="43207" user="kdkeller">
    <tag k="gfoss_id" v="6676"/>
    <tag k="name" v="Magisano"/>
    <tag k="place" v="village"/>
    <tag k="population" v="1318"/>
    <tag k="source" v="geodati.gfoss.it"/>
    <tag k="wikidata" v="Q30026844"/>
  </node>
  <node id="67273472" lat="38.9489860" lon="16.4719316" version="4" timestamp="2016-08-28T18:58:31Z" changeset="41762146" uid="743479" user="fayor">
    <tag k="gfoss_id" v="6682"/>
    <tag k="name" v="Miglierina"/>
    <tag k="place" v="village"/>
    <tag k="population" v="912"/>
    <tag k="source" v="geodati.gfoss.it"/>
  </node>
  <node id="67273499" lat="38.8379860" lon="16.5187040" version="3" timestamp="2025-02-04T12:39:25Z" changeset="162123816" uid="43207" user="kdkeller">
    <tag k="gfoss_id" v="6694"/>
    <tag k="name" v="San Floro"/>
    <tag k="place" v="village"/>
    <tag k="population" v="594"/>
    <tag k="source" v="geodati.gfoss.it"/>
    <tag k="wikidata" v="Q30029891"/>
  </node>
  <node id="67273552" lat="39.0188240" lon="16.7427491" version="3" timestamp="2016-08-28T18:58:19Z" changeset="41762146" uid="743479" user="fayor">
    <tag k="gfoss_id" v="6656"/>
    <tag k="name" v="Cerva"/>
    <tag k="place" v="village"/>
    <tag k="population" v="1342"/>
    <tag k="source" v="geodati.gfoss.it"/>
  </node>
  <node id="67273566" lat="38.6473830" lon="16.4862050" version="3" timestamp="2024-07-22T16:01:09Z" changeset="154270130" uid="18063623" user="DomeF">
    <tag k="gfoss_id" v="6663"/>
    <tag k="name" v="Davoli"/>
    <tag k="place" v="village"/>
    <tag k="population" v="5238"/>
    <tag k="source" v="geodati.gfoss.it"/>
    <tag k="wikidata" v="Q53517"/>
    <tag k="wikipedia" v="it:Davoli"/>
  </node>
  <node id="67273600" lat="38.9744890" lon="16.5305030" version="2" timestamp="2016-08-28T18:58:26Z" changeset="41762146" uid="743479" user="fayor">
    <tag k="gfoss_id" v="6670"/>
    <tag k="name" v="Gimigliano"/>
    <tag k="place" v="village"/>
    <tag k="population" v="3612"/>
    <tag k="source" v="geodati.gfoss.it"/>
  </node>
  <node id="67273670" lat="39.0436920" lon="16.7559070" version="2" timestamp="2016-08-28T18:58:37Z" changeset="41762146" uid="743479" user="fayor">
    <tag k="gfoss_id" v="6691"/>
    <tag k="name" v="Petronà"/>
    <tag k="place" v="village"/>
    <tag k="population" v="3010"/>
    <tag k="source" v="geodati.gfoss.it"/>
  </node>
  <node id="67273706" lat="38.7255840" lon="16.4237030" version="3" timestamp="2025-02-04T12:39:24Z" changeset="162123816" uid="43207" user="kdkeller">
    <tag k="gfoss_id" v="6687"/>
    <tag k="name" v="Olivadi"/>
    <tag k="place" v="village"/>
    <tag k="population" v="643"/>
    <tag k="source" v="geodati.gfoss.it"/>
    <tag k="wikidata" v="Q30028330"/>
  </node>
  <node id="67273713" lat="38.7485342" lon="16.4522163" version="3" timestamp="2020-10-28T21:38:17Z" changeset="93201531" uid="95387" user="rugamarcus">
    <tag k="gfoss_id" v="6688"/>
    <tag k="name" v="Palermiti"/>
    <tag k="place" v="village"/>
    <tag k="population" v="1436"/>
    <tag k="source" v="geodati.gfoss.it"/>
  </node>
  <node id="67273717" lat="38.9857900" lon="16.5825040" version="4" timestamp="2017-03-05T13:46:18Z" changeset="46596366" uid="354284" user="sbiribizio">
    <tag k="gfoss_id" v="6689"/>
    <tag k="name" v="Pentone"/>
    <tag k="place" v="village"/>
    <tag k="population" v="2197"/>
    <tag k="source" v="geodati.gfoss.it"/>
    <tag k="wikidata" v="Q53670"/>
    <tag k="wikipedia" v="it:Pentone"/>
  </node>
  <node id="67273763" lat="38.6668830" lon="16.4812050" version="3" timestamp="2024-07-22T16:01:09Z" changeset="154270130" uid="18063623" user="DomeF">
    <tag k="gfoss_id" v="6702"/>
    <tag k="name" v="Satriano"/>
    <tag k="place" v="village"/>
    <tag k="population" v="3102"/>
    <tag k="source" v="geodati.gfoss.it"/>
    <tag k="wikidata" v="Q53694"/>
    <tag k="wikipedia" v="it:Satriano"/>
  </node>
  <node id="67273938" lat="39.6901767" lon="15.8839994" version="3" timestamp="2016-08-28T18:58:14Z" changeset="41762146" uid="743479" user="fayor">
    <tag k="gfoss_id" v="6505"/>
    <tag k="name" v="Buonvicino"/>
    <tag k="place" v="village"/>
    <tag k="population" v="2540"/>
    <tag k="source" v="geodati.gfoss.it"/>
  </node>
  <node id="67273962" lat="39.5171755" lon="16.7264860" version="3" timestamp="2024-03-12T09:38:26Z" changeset="148540278" uid="3215770" user="Andrea Del Sarto">
    <tag k="gfoss_id" v="6531"/>
    <tag k="name" v="Cropalati"/>
    <tag k="place" v="village"/>
    <tag k="population" v="1263"/>
    <tag k="source" v="geodati.gfoss.it"/>
  </node>
  <node id="67274000" lat="39.5077960" lon="16.1149880" version="3" timestamp="2016-09-05T17:41:55Z" changeset="41936859" uid="354689" user="Francesco Placco">
    <tag k="gfoss_id" v="6524"/>
    <tag k="name" v="Cerzeto"/>
    <tag k="name:aae" v="Qana"/>
    <tag k="place" v="village"/>
    <tag k="population" v="1467"/>
    <tag k="source" v="geodati.gfoss.it"/>
  </node>
  <node id="67274037" lat="39.1419900" lon="16.2356940" version="21" timestamp="2023-08-21T19:40:11Z" changeset="140198197" uid="19233464" user="secondaryhighway">
    <tag k="gfoss_id" v="6544"/>
    <tag k="name" v="Grimaldi"/>
    <tag k="name:ru" v="Гримальди"/>
    <tag k="place" v="village"/>
    <tag k="population" v="1870"/>
    <tag k="source" v="geodati.gfoss.it"/>
  </node>
  <node id="67274046" lat="39.2347925" lon="16.0671836" version="4" timestamp="2024-02-09T08:50:35Z" changeset="147246949" uid="8215303" user="ross-map">
    <tag k="gfoss_id" v="6540"/>
    <tag k="name" v="Fiumefreddo Bruzio"/>
    <tag k="place" v="village"/>
    <tag k="population" v="3363"/>
    <tag k="source" v="geodati.gfoss.it"/>
  </node>
  <node id="67274054" lat="39.7214010" lon="16.1701860" version="5" timestamp="2018-05-08T19:46:35Z" changeset="58798710" uid="1293386" user="Sal73x">
    <tag k="gfoss_id" v="6539"/>
    <tag k="is_in" v="Cosenza, Calabria, Italy"/>
    <tag k="name" v="Firmo"/>
    <tag k="name:aae" v="Ferma"/>
    <tag k="place" v="village"/>
    <tag k="population" v="2460"/>
    <tag k="source" v="geodati.gfoss.it"/>
  </node>
  <node id="67274060" lat="39.2251920" lon="16.3302960" version="2" timestamp="2016-08-28T18:58:24Z" changeset="41762146" uid="743479" user="fayor">
    <tag k="gfoss_id" v="6538"/>
    <tag k="name" v="Figline Vegliaturo"/>
    <tag k="place" v="village"/>
    <tag k="population" v="1026"/>
    <tag k="source" v="geodati.gfoss.it"/>
  </node>
  <node id="67274065" lat="39.5656970" lon="16.0536725" version="4" timestamp="2024-08-09T10:14:39Z" changeset="155015270" uid="18063623" user="DomeF">
    <tag k="gfoss_id" v="6536"/>
    <tag k="name" v="Fagnano Castello"/>
    <tag k="place" v="village"/>
    <tag k="population" v="4198"/>
    <tag k="source" v="geodati.gfoss.it"/>
    <tag k="wikidata" v="Q53877"/>
    <tag k="wikipedia" v="it:Fagnano Castello"/>
  </node>
  <node id="67274080" lat="39.2055920" lon="16.3319960" version="2" timestamp="2024-07-29T13:27:49Z" changeset="154563124" uid="18063623" user="DomeF">
    <tag k="gfoss_id" v="6560"/>
    <tag k="is_in" v="Cosenza, Calabria, Italy"/>
    <tag k="name" v="Mangone"/>
    <tag k="place" v="village"/>
    <tag k="population" v="1730"/>
    <tag k="postal_code" v="87050"/>
    <tag k="source" v="geodati.gfoss.it"/>
    <tag k="wikidata" v="Q53909"/>
    <tag k="wikipedia" v="it:Mangone"/>
  </node>
  <node id="67274096" lat="39.5996980" lon="16.0532850" version="3" timestamp="2025-01-31T15:08:35Z" changeset="161980560" uid="10124288" user="damianeue">
    <tag k="gfoss_id" v="6558"/>
    <tag k="name" v="Malvito"/>
    <tag k="place" v="village"/>
    <tag k="population" v="2078"/>
    <tag k="source" v="geodati.gfoss.it"/>
    <tag k="wikidata" v="Q30027159"/>
  </node>
  <node id="67274103" lat="39.1549900" lon="16.2485950" version="3" timestamp="2024-07-29T13:27:49Z" changeset="154563124" uid="18063623" user="DomeF">
    <tag k="gfoss_id" v="6557"/>
    <tag k="name" v="Malito"/>
    <tag k="place" v="village"/>
    <tag k="population" v="896"/>
    <tag k="postal_code" v="87030"/>
    <tag k="source" v="geodati.gfoss.it"/>
    <tag k="wikidata" v="Q53903"/>
    <tag k="wikipedia" v="it:Malito"/>
  </node>
  <node id="67274118" lat="39.7175180" lon="15.8493274" version="4" timestamp="2024-03-11T12:02:27Z" changeset="148502674" uid="69259" user="DnaX">
    <tag k="gfoss_id" v="6556"/>
    <tag k="name" v="Maierà"/>
    <tag k="place" v="village"/>
    <tag k="population" v="1333"/>
    <tag k="source" v="geodati.gfoss.it"/>
    <tag k="wikidata" v="Q53902"/>
    <tag k="wikipedia" v="it:Maierà"/>
  </node>
  <node id="67274134" lat="39.7422654" lon="16.1228246" version="8" timestamp="2024-08-09T10:14:39Z" changeset="155015270" uid="18063623" user="DomeF">
    <tag k="ele" v="580"/>
    <tag k="gfoss_id" v="6554"/>
    <tag k="is_in" v="Cosenza, Calabria, Italy"/>
    <tag k="name" v="Lungro"/>
    <tag k="name:aae" v="Ungra"/>
    <tag k="place" v="village"/>
    <tag k="population" v="3145"/>
    <tag k="source" v="geodati.gfoss.it"/>
    <tag k="wikidata" v="Q53897"/>
    <tag k="wikipedia" v="it:Lungro"/>
  </node>
  <node id="67274140" lat="39.4633777" lon="16.1378293" version="4" timestamp="2024-08-24T09:55:39Z" changeset="155687197" uid="18785499" user="DaveMzp">
    <tag k="gfoss_id" v="6551"/>
    <tag k="name" v="Lattarico"/>
    <tag k="place" v="village"/>
    <tag k="population" v="4184"/>
    <tag k="source" v="geodati.gfoss.it"/>
    <tag k="wikidata" v="Q30026526"/>
  </node>
  <node id="67274211" lat="39.9004060" lon="16.4319900" version="3" timestamp="2016-09-05T17:42:47Z" changeset="41936878" uid="354689" user="Francesco Placco">
    <tag k="gfoss_id" v="6585"/>
    <tag k="name" v="Plataci"/>
    <tag k="name:aae" v="Pllatani"/>
    <tag k="place" v="village"/>
    <tag k="population" v="920"/>
    <tag k="source" v="geodati.gfoss.it"/>
  </node>
  <node id="67274462" lat="39.9285754" lon="15.8239803" version="3" timestamp="2016-08-28T18:58:09Z" changeset="41762146" uid="743479" user="fayor">
    <tag k="gfoss_id" v="6490"/>
    <tag k="name" v="Aieta"/>
    <tag k="place" v="village"/>
    <tag k="population" v="892"/>
    <tag k="source" v="geodati.gfoss.it"/>
  </node>
  <node id="67274483" lat="39.6777304" lon="15.8211279" version="5" timestamp="2023-08-24T13:17:06Z" changeset="140323157" uid="18063623" user="DomeF">
    <tag k="gfoss_id" v="6533"/>
    <tag k="name" v="Diamante"/>
    <tag k="place" v="village"/>
    <tag k="population" v="5091"/>
    <tag k="postal_code" v="87023"/>
    <tag k="source" v="geodati.gfoss.it"/>
    <tag k="wikidata" v="Q53873"/>
    <tag k="wikipedia" v="it:Diamante (Italia)"/>
  </node>
  <node id="67274523" lat="39.4142940" lon="16.0297870" version="3" timestamp="2024-08-02T10:10:09Z" changeset="154728440" uid="18063623" user="DomeF">
    <tag k="gfoss_id" v="6543"/>
    <tag k="name" v="Fuscaldo"/>
    <tag k="place" v="village"/>
    <tag k="population" v="8323"/>
    <tag k="postal_code" v="87024"/>
    <tag k="source" v="geodati.gfoss.it"/>
    <tag k="wikidata" v="Q53884"/>
    <tag k="wikipedia" v="it:Fuscaldo"/>
  </node>
  <node id="67274527" lat="39.2758920" lon="16.0917900" version="4" timestamp="2024-08-02T10:10:09Z" changeset="154728440" uid="18063623" user="DomeF">
    <tag k="gfoss_id" v="6537"/>
    <tag k="name" v="Falconara Albanese"/>
    <tag k="name:aae" v="Falkunara Arbëreshë"/>
    <tag k="place" v="village"/>
    <tag k="population" v="1416"/>
    <tag k="postal_code" v="87030"/>
    <tag k="source" v="geodati.gfoss.it"/>
    <tag k="wikidata" v="Q53878"/>
    <tag k="wikipedia" v="it:Falconara Albanese"/>
  </node>
  <node id="67274545" lat="39.1474910" lon="16.3032960" version="2" timestamp="2016-08-28T18:58:16Z" changeset="41762146" uid="743479" user="fayor">
    <tag k="gfoss_id" v="6512"/>
    <tag k="name" v="Carpanzano"/>
    <tag k="place" v="village"/>
    <tag k="population" v="378"/>
    <tag k="source" v="geodati.gfoss.it"/>
  </node>
  <node id="67274550" lat="39.8604050" lon="16.3827890" version="2" timestamp="2016-08-28T18:58:19Z" changeset="41762146" uid="743479" user="fayor">
    <tag k="gfoss_id" v="6521"/>
    <tag k="name" v="Cerchiara di Calabria"/>
    <tag k="place" v="village"/>
    <tag k="population" v="2942"/>
    <tag k="source" v="geodati.gfoss.it"/>
  </node>
  <node id="67274605" lat="39.8883030" lon="15.9867800" version="2" timestamp="2016-08-28T18:58:33Z" changeset="41762146" uid="743479" user="fayor">
    <tag k="gfoss_id" v="6569"/>
    <tag k="name" v="Mormanno"/>
    <tag k="place" v="village"/>
    <tag k="population" v="3729"/>
    <tag k="source" v="geodati.gfoss.it"/>
  </node>
  <node id="67274640" lat="39.4672010" lon="16.8348040" version="2" timestamp="2016-08-28T18:58:30Z" changeset="41762146" uid="743479" user="fayor">
    <tag k="gfoss_id" v="6559"/>
    <tag k="name" v="Mandatoriccio"/>
    <tag k="place" v="village"/>
    <tag k="population" v="3045"/>
    <tag k="source" v="geodati.gfoss.it"/>
  </node>
  <node id="67274653" lat="39.1707910" lon="16.3063960" version="3" timestamp="2024-07-29T13:27:49Z" changeset="154563124" uid="18063623" user="DomeF">
    <tag k="gfoss_id" v="6563"/>
    <tag k="name" v="Marzi"/>
    <tag k="place" v="village"/>
    <tag k="population" v="1018"/>
    <tag k="postal_code" v="87050"/>
    <tag k="source" v="geodati.gfoss.it"/>
    <tag k="wikidata" v="Q53914"/>
    <tag k="wikipedia" v="it:Marzi"/>
  </node>
  <node id="67274663" lat="39.2995930" lon="16.1750910" version="2" timestamp="2016-08-28T18:58:30Z" changeset="41762146" uid="743479" user="fayor">
    <tag k="gfoss_id" v="6562"/>
    <tag k="name" v="Marano Principato"/>
    <tag k="place" v="village"/>
    <tag k="population" v="2337"/>
    <tag k="source" v="geodati.gfoss.it"/>
  </node>
  <node id="67274681" lat="39.7244990" lon="15.8541790" version="2" timestamp="2016-08-28T18:58:26Z" changeset="41762146" uid="743479" user="fayor">
    <tag k="gfoss_id" v="6545"/>
    <tag k="name" v="Grisolia"/>
    <tag k="place" v="village"/>
    <tag k="population" v="2395"/>
    <tag k="source" v="geodati.gfoss.it"/>
  </node>
  <node id="67274689" lat="39.4482990" lon="16.6104990" version="2" timestamp="2016-08-28T18:58:29Z" changeset="41762146" uid="743479" user="fayor">
    <tag k="gfoss_id" v="6553"/>
    <tag k="name" v="Longobucco"/>
    <tag k="place" v="village"/>
    <tag k="population" v="4351"/>
    <tag k="source" v="geodati.gfoss.it"/>
  </node>
  <node id="67274697" lat="39.2070900" lon="16.0764900" version="3" timestamp="2024-08-02T10:10:09Z" changeset="154728440" uid="18063623" user="DomeF">
    <tag k="gfoss_id" v="6552"/>
    <tag k="name" v="Longobardi"/>
    <tag k="place" v="village"/>
    <tag k="population" v="2340"/>
    <tag k="postal_code" v="87030"/>
    <tag k="source" v="geodati.gfoss.it"/>
    <tag k="wikidata" v="Q130900"/>
    <tag k="wikipedia" v="it:Longobardi"/>
  </node>
  <node id="67274911" lat="39.0902880" lon="16.1274930" version="2" timestamp="2016-08-28T18:58:48Z" changeset="41762146" uid="743479" user="fayor">
    <tag k="gfoss_id" v="6625"/>
    <tag k="name" v="Serra d'Aiello"/>
    <tag k="place" v="village"/>
    <tag k="population" v="878"/>
    <tag k="source" v="geodati.gfoss.it"/>
  </node>
  <node id="67274953" lat="39.2440865" lon="16.7883328" version="5" timestamp="2016-08-28T18:58:19Z" changeset="41762146" uid="743479" user="fayor">
    <tag k="gfoss_id" v="7953"/>
    <tag k="name" v="Cerenzia"/>
    <tag k="place" v="village"/>
    <tag k="population" v="1371"/>
    <tag k="source" v="geodati.gfoss.it"/>
  </node>
  <node id="67274962" lat="39.3063599" lon="16.9737915" version="6" timestamp="2016-09-05T17:23:48Z" changeset="41936483" uid="354689" user="Francesco Placco">
    <tag k="gfoss_id" v="7950"/>
    <tag k="name" v="Carfizzi"/>
    <tag k="name:aae" v="Karfici"/>
    <tag k="place" v="village"/>
    <tag k="population" v="868"/>
    <tag k="source" v="geodati.gfoss.it"/>
  </node>
  <node id="67274966" lat="39.2502845" lon="16.9606589" version="4" timestamp="2016-08-28T18:58:16Z" changeset="41762146" uid="743479" user="fayor">
    <tag k="gfoss_id" v="7951"/>
    <tag k="name" v="Casabona"/>
    <tag k="place" v="village"/>
    <tag k="population" v="3160"/>
    <tag k="source" v="geodati.gfoss.it"/>
  </node>
  <node id="67274971" lat="39.3545008" lon="16.9187095" version="5" timestamp="2016-08-28T18:58:52Z" changeset="41762146" uid="743479" user="fayor">
    <tag k="gfoss_id" v="7973"/>
    <tag k="name" v="Umbriatico"/>
    <tag k="place" v="village"/>
    <tag k="population" v="973"/>
    <tag k="source" v="geodati.gfoss.it"/>
  </node>
  <node id="67274975" lat="39.2274164" lon="16.7785692" version="5" timestamp="2016-08-28T18:58:14Z" changeset="41762146" uid="743479" user="fayor">
    <tag k="gfoss_id" v="7949"/>
    <tag k="name" v="Caccuri"/>
    <tag k="place" v="village"/>
    <tag k="population" v="1780"/>
    <tag k="source" v="geodati.gfoss.it"/>
  </node>
  <node id="67274986" lat="39.2639586" lon="17.0520257" version="7" timestamp="2016-10-04T15:49:43Z" changeset="42633587" uid="1241595" user="Runis">
    <tag k="gfoss_id" v="7972"/>
    <tag k="name" v="Strongoli"/>
    <tag k="name:it" v="Strongoli"/>
    <tag k="name:lt" v="Strongolis"/>
    <tag k="place" v="village"/>
    <tag k="population" v="6107"/>
    <tag k="source" v="geodati.gfoss.it"/>
  </node>
  <node id="67275002" lat="39.1094105" lon="16.7886538" version="6" timestamp="2016-09-09T00:49:47Z" changeset="42015514" uid="743479" user="fayor">
    <tag k="gfoss_id" v="7964"/>
    <tag k="name" v="Petilia Policastro"/>
    <tag k="place" v="village"/>
    <tag k="population" v="9173"/>
    <tag k="source" v="geodati.gfoss.it"/>
  </node>
  <node id="67275005" lat="39.3817320" lon="17.0613529" version="5" timestamp="2016-08-28T18:58:20Z" changeset="41762146" uid="743479" user="fayor">
    <tag k="gfoss_id" v="7954"/>
    <tag k="name" v="Cirò"/>
    <tag k="place" v="village"/>
    <tag k="population" v="3614"/>
    <tag k="source" v="geodati.gfoss.it"/>
  </node>
  <node id="67275117" lat="39.3076929" lon="16.9109837" version="8" timestamp="2016-09-05T17:25:14Z" changeset="41936519" uid="354689" user="Francesco Placco">
    <tag k="gfoss_id" v="7963"/>
    <tag k="name" v="Pallagorio"/>
    <tag k="name:aae" v="Puhëriu"/>
    <tag k="place" v="village"/>
    <tag k="population" v="1627"/>
    <tag k="source" v="geodati.gfoss.it"/>
  </node>
  <node id="67275127" lat="39.1854706" lon="17.0096170" version="10" timestamp="2022-01-06T18:30:23Z" changeset="115849022" uid="11220113" user="ivanbranco">
    <tag k="alt_name" v="Rocca Ferdinandea"/>
    <tag k="gfoss_id" v="7966"/>
    <tag k="name" v="Rocca di Neto"/>
    <tag k="old_name" v="Ferdinandea"/>
    <tag k="place" v="village"/>
    <tag k="population" v="5614"/>
    <tag k="source" v="geodati.gfoss.it"/>
  </node>
  <node id="67275150" lat="39.3091619" lon="17.0280258" version="6" timestamp="2024-02-12T07:30:00Z" changeset="147354330" uid="8215303" user="ross-map">
    <tag k="gfoss_id" v="7961"/>
    <tag k="name" v="Melissa"/>
    <tag k="place" v="village"/>
    <tag k="population" v="3245"/>
    <tag k="source" v="geodati.gfoss.it"/>
  </node>
  <node id="67275182" lat="39.1044055" lon="16.9244389" version="5" timestamp="2016-08-28T18:58:44Z" changeset="41762146" uid="743479" user="fayor">
    <tag k="gfoss_id" v="7967"/>
    <tag k="name" v="San Mauro Marchesato"/>
    <tag k="place" v="village"/>
    <tag k="population" v="2415"/>
    <tag k="source" v="geodati.gfoss.it"/>
  </node>
  <node id="67280505" lat="40.9463220" lon="15.6726600" version="5" timestamp="2024-01-13T09:03:48Z" changeset="146206606" uid="3860151" user="Michele Aquilani">
    <tag k="gfoss_id" v="6365"/>
    <tag k="name" v="Barile"/>
    <tag k="name:aae" v="Barilli"/>
    <tag k="name:it" v="Barile"/>
    <tag k="place" v="village"/>
    <tag k="population" v="3229"/>
    <tag k="source" v="geodati.gfoss.it"/>
    <tag k="website" v="http://www.comune.barile.pz.it"/>
    <tag k="wikidata" v="Q52530"/>
    <tag k="wikimedia_commons" v="Category:Barile"/>
    <tag k="wikipedia" v="it:Barile (Italia)"/>
  </node>
  <node id="67280625" lat="40.0470090" lon="16.3493860" version="2" timestamp="2016-08-28T18:58:19Z" changeset="41762146" uid="743479" user="fayor">
    <tag k="gfoss_id" v="6381"/>
    <tag k="name" v="Cersosimo"/>
    <tag k="place" v="village"/>
    <tag k="population" v="847"/>
    <tag k="source" v="geodati.gfoss.it"/>
  </node>
  <node id="67280638" lat="40.2828100" lon="15.8887730" version="3" timestamp="2021-06-06T01:50:57Z" changeset="105901588" uid="1772368" user="pizzaiolo">
    <tag k="gfoss_id" v="6391"/>
    <tag k="name" v="Grumento Nova"/>
    <tag k="place" v="village"/>
    <tag k="population" v="1839"/>
    <tag k="source" v="geodati.gfoss.it"/>
    <tag k="wikidata" v="Q30026258"/>
  </node>
  <node id="67280650" lat="40.8595834" lon="15.8552685" version="3" timestamp="2016-08-28T18:58:24Z" changeset="41762146" uid="743479" user="fayor">
    <tag k="gfoss_id" v="6387"/>
    <tag k="name" v="Forenza"/>
    <tag k="place" v="village"/>
    <tag k="population" v="2546"/>
    <tag k="source" v="geodati.gfoss.it"/>
  </node>
  <node id="67280704" lat="40.3766014" lon="15.8244926" version="3" timestamp="2016-08-28T18:58:30Z" changeset="41762146" uid="743479" user="fayor">
    <tag k="gfoss_id" v="6400"/>
    <tag k="name" v="Marsicovetere"/>
    <tag k="place" v="village"/>
    <tag k="population" v="4703"/>
    <tag k="source" v="geodati.gfoss.it"/>
  </node>
  <node id="67280748" lat="40.9117813" lon="15.7247832" version="5" timestamp="2020-04-02T18:24:28Z" changeset="82995463" uid="69259" user="DnaX">
    <tag k="addr:postcode" v="85020"/>
    <tag k="elevation" v="620 m"/>
    <tag k="gfoss_id" v="6421"/>
    <tag k="name" v="Ripacandida"/>
    <tag k="place" v="village"/>
    <tag k="population" v="1767"/>
    <tag k="source" v="geodati.gfoss.it"/>
    <tag k="wikidata" v="Q52647"/>
    <tag k="wikipedia" v="it:Ripacandida"/>
  </node>
  <node id="67280904" lat="40.5984721" lon="15.5076620" version="4" timestamp="2025-07-14T21:08:43Z" changeset="168936153" uid="23088179" user="max007_">
    <tag k="gfoss_id" v="6450"/>
    <tag k="name" v="Vietri di Potenza"/>
    <tag k="place" v="village"/>
    <tag k="population" v="3096"/>
    <tag k="source" v="geodati.gfoss.it"/>
  </node>
  <node id="67280950" lat="40.7302190" lon="15.9257690" version="2" timestamp="2016-08-28T18:58:15Z" changeset="41762146" uid="743479" user="fayor">
    <tag k="gfoss_id" v="6372"/>
    <tag k="name" v="Cancellara"/>
    <tag k="place" v="village"/>
    <tag k="population" v="1598"/>
    <tag k="source" v="geodati.gfoss.it"/>
  </node>
  <node id="67280999" lat="40.4605140" lon="15.9709730" version="2" timestamp="2016-08-28T18:58:28Z" changeset="41762146" uid="743479" user="fayor">
    <tag k="gfoss_id" v="6395"/>
    <tag k="name" v="Laurenzana"/>
    <tag k="place" v="village"/>
    <tag k="population" v="2250"/>
    <tag k="source" v="geodati.gfoss.it"/>
  </node>
  <node id="67281107" lat="40.0675050" lon="15.8002740" version="2" timestamp="2016-08-28T18:58:34Z" changeset="41762146" uid="743479" user="fayor">
    <tag k="gfoss_id" v="6408"/>
    <tag k="name" v="Nemoli"/>
    <tag k="place" v="village"/>
    <tag k="population" v="1561"/>
    <tag k="source" v="geodati.gfoss.it"/>
  </node>
  <node id="67281112" lat="40.0868090" lon="16.3296850" version="2" timestamp="2016-08-28T18:58:34Z" changeset="41762146" uid="743479" user="fayor">
    <tag k="gfoss_id" v="6409"/>
    <tag k="name" v="Noepoli"/>
    <tag k="place" v="village"/>
    <tag k="population" v="1189"/>
    <tag k="source" v="geodati.gfoss.it"/>
  </node>
  <node id="67281294" lat="39.9781070" lon="16.2962860" version="2" timestamp="2016-08-28T18:58:51Z" changeset="41762146" uid="743479" user="fayor">
    <tag k="gfoss_id" v="6442"/>
    <tag k="name" v="Terranova di Pollino"/>
    <tag k="place" v="village"/>
    <tag k="population" v="1534"/>
    <tag k="source" v="geodati.gfoss.it"/>
  </node>
  <node id="67281334" lat="40.5459130" lon="15.5589630" version="2" timestamp="2016-08-28T18:58:45Z" changeset="41762146" uid="743479" user="fayor">
    <tag k="gfoss_id" v="6433"/>
    <tag k="name" v="Sant'Angelo Le Fratte"/>
    <tag k="place" v="village"/>
    <tag k="population" v="1472"/>
    <tag k="source" v="geodati.gfoss.it"/>
  </node>
  <node id="67283843" lat="41.8005697" lon="14.9107419" version="14" timestamp="2023-09-02T11:43:06Z" changeset="140714920" uid="20124152" user="amarie-vinnie">
    <tag k="ele" v="341"/>
    <tag k="name" v="Larino"/>
    <tag k="place" v="town"/>
    <tag k="population" v="5150"/>
    <tag k="wikidata" v="Q30026506"/>
    <tag k="wikipedia" v="it:Larino"/>
  </node>
  <node id="67283874" lat="41.7366398" lon="14.9529770" version="3" timestamp="2016-09-14T14:29:04Z" changeset="42151140" uid="469087" user="slg">
    <tag k="gfoss_id" v="6056"/>
    <tag k="name" v="Montelongo"/>
    <tag k="place" v="village"/>
    <tag k="population" v="490"/>
    <tag k="source" v="geodati.gfoss.it"/>
  </node>
  <node id="67283897" lat="41.8880266" lon="14.6467497" version="4" timestamp="2016-09-03T02:35:23Z" changeset="41880656" uid="743479" user="fayor">
    <tag k="gfoss_id" v="6057"/>
    <tag k="name" v="Montemitro"/>
    <tag k="name:hr" v="Mundimitar"/>
    <tag k="place" v="village"/>
    <tag k="population" v="468"/>
    <tag k="source" v="geodati.gfoss.it"/>
  </node>
  <node id="67283909" lat="41.7115320" lon="14.7798310" version="2" timestamp="2016-09-03T02:35:23Z" changeset="41880656" uid="743479" user="fayor">
    <tag k="gfoss_id" v="6060"/>
    <tag k="name" v="Morrone del Sannio"/>
    <tag k="place" v="village"/>
    <tag k="population" v="757"/>
    <tag k="source" v="geodati.gfoss.it"/>
  </node>
  <node id="67284030" lat="41.7531249" lon="14.7066085" version="2" timestamp="2019-12-15T16:13:30Z" changeset="78433524" uid="554973" user="dgitto">
    <tag k="gfoss_id" v="6025"/>
    <tag k="name" v="Castelbottaccio"/>
    <tag k="place" v="village"/>
    <tag k="population" v="422"/>
    <tag k="source" v="geodati.gfoss.it"/>
  </node>
  <node id="67284052" lat="41.6183280" lon="14.5598270" version="2" timestamp="2016-09-03T02:35:19Z" changeset="41880656" uid="743479" user="fayor">
    <tag k="gfoss_id" v="6028"/>
    <tag k="name" v="Castropignano"/>
    <tag k="place" v="village"/>
    <tag k="population" v="1147"/>
    <tag k="source" v="geodati.gfoss.it"/>
  </node>
  <node id="67284138" lat="41.6099300" lon="14.8085330" version="2" timestamp="2016-09-03T02:35:23Z" changeset="41880656" uid="743479" user="fayor">
    <tag k="gfoss_id" v="6052"/>
    <tag k="name" v="Monacilioni"/>
    <tag k="place" v="village"/>
    <tag k="population" v="680"/>
    <tag k="source" v="geodati.gfoss.it"/>
  </node>
  <node id="67284282" lat="41.6451260" lon="14.2463200" version="2" timestamp="2016-09-03T02:35:22Z" changeset="41880656" uid="743479" user="fayor">
    <tag k="gfoss_id" v="7584"/>
    <tag k="name" v="Miranda"/>
    <tag k="place" v="village"/>
    <tag k="population" v="1083"/>
    <tag k="source" v="geodati.gfoss.it"/>
  </node>
  <node id="67284306" lat="41.5616240" lon="14.1671190" version="2" timestamp="2016-09-03T02:35:22Z" changeset="41880656" uid="743479" user="fayor">
    <tag k="gfoss_id" v="7582"/>
    <tag k="name" v="Macchia d'Isernia"/>
    <tag k="place" v="village"/>
    <tag k="population" v="909"/>
    <tag k="source" v="geodati.gfoss.it"/>
  </node>
  <node id="67284344" lat="41.5987240" lon="14.1049170" version="2" timestamp="2016-09-03T02:35:20Z" changeset="41880656" uid="743479" user="fayor">
    <tag k="gfoss_id" v="7574"/>
    <tag k="name" v="Colli a Volturno"/>
    <tag k="place" v="village"/>
    <tag k="population" v="1407"/>
    <tag k="source" v="geodati.gfoss.it"/>
  </node>
  <node id="68507585" lat="42.7924117" lon="13.0929279" version="45" timestamp="2024-08-23T15:27:16Z" changeset="155659176" uid="1211510" user="arcanma">
    <tag k="ele" v="604"/>
    <tag k="gfoss_id" v="49866"/>
    <tag k="istat_id" v="5403510010"/>
    <tag k="name" v="Norcia"/>
    <tag k="name:it" v="Norcia"/>
    <tag k="name:ru" v="Норча"/>
    <tag k="place" v="town"/>
    <tag k="population" v="2728"/>
    <tag k="population:date" v="2021-12-31"/>
    <tag k="population:note" v="Popolazione del centro abitato. La popolazione dell'intero comune è inserita nella relazione amministrativa"/>
    <tag k="population:note:en" v="Urban centre population. The municipality population is in the boundary relation"/>
    <tag k="source:population" v="Istat 2021 census"/>
    <tag k="website" v="https://www.comune.norcia.pg.it/"/>
    <tag k="wikidata" v="Q20494"/>
    <tag k="wikipedia" v="it:Norcia"/>
  </node>
  <node id="68528916" lat="41.4327280" lon="15.1230420" version="2" timestamp="2016-08-27T16:23:57Z" changeset="41739592" uid="743479" user="fayor">
    <tag k="gfoss_id" v="6098"/>
    <tag k="name" v="Alberona"/>
    <tag k="place" v="village"/>
    <tag k="population" v="1134"/>
    <tag k="source" v="geodati.gfoss.it"/>
  </node>
  <node id="68528948" lat="41.5082727" lon="15.3376465" version="7" timestamp="2016-10-27T19:20:21Z" changeset="43226654" uid="2511706" user="calfarome">
    <tag k="gfoss_id" v="6124"/>
    <tag k="name" v="Lucera"/>
    <tag k="name:it" v="Lucera"/>
    <tag k="name:lt" v="Lučera"/>
    <tag k="place" v="town"/>
    <tag k="population" v="33724"/>
    <tag k="source" v="geodati.gfoss.it"/>
    <tag k="wikidata" v="Q51933"/>
  </node>
  <node id="68529121" lat="41.5258065" lon="15.0051913" version="5" timestamp="2024-10-30T08:30:42Z" changeset="158529986" uid="20397427" user="RUGGERO DEL VECCHIO">
    <tag k="gfoss_id" v="6144"/>
    <tag k="name" v="San Marco la Catola"/>
    <tag k="place" v="village"/>
    <tag k="population" v="876"/>
    <tag k="population:date" v="2022-08-31"/>
    <tag k="source" v="geodati.gfoss.it"/>
    <tag k="source:population" v="wikipedia"/>
    <tag k="wikidata" v="Q51954"/>
    <tag k="wikipedia" v="it:San Marco la Catola"/>
  </node>
  <node id="68566231" lat="40.9589140" lon="14.6005370" version="2" timestamp="2016-08-31T23:04:12Z" changeset="41838072" uid="743479" user="fayor">
    <tag k="gfoss_id" v="5437"/>
    <tag k="name" v="Avella"/>
    <tag k="place" v="village"/>
    <tag k="population" v="7677"/>
    <tag k="source" v="geodati.gfoss.it"/>
  </node>
  <node id="68566282" lat="40.7822150" lon="15.2239530" version="2" timestamp="2016-08-30T01:07:07Z" changeset="41791239" uid="743479" user="fayor">
    <tag k="gfoss_id" v="5444"/>
    <tag k="name" v="Calabritto"/>
    <tag k="place" v="village"/>
    <tag k="population" v="2869"/>
    <tag k="source" v="geodati.gfoss.it"/>
  </node>
  <node id="68566398" lat="40.8665266" lon="14.7760307" version="4" timestamp="2024-11-18T19:05:24Z" changeset="159296211" uid="1950277" user="Mannivu">
    <tag k="gfoss_id" v="5459"/>
    <tag k="name" v="Contrada"/>
    <tag k="place" v="village"/>
    <tag k="population" v="2874"/>
    <tag k="source" v="geodati.gfoss.it"/>
    <tag k="wikidata" v="Q30025056"/>
  </node>
  <node id="68566556" lat="40.8291308" lon="14.8456516" version="5" timestamp="2016-09-01T23:10:14Z" changeset="41859282" uid="743479" user="fayor">
    <tag k="gfoss_id" v="5530"/>
    <tag k="name" v="Solofra"/>
    <tag k="place" v="town"/>
    <tag k="population" v="12495"/>
    <tag k="source" v="geodati.gfoss.it"/>
  </node>
  <node id="68566713" lat="41.0121210" lon="15.3747530" version="2" timestamp="2016-09-01T23:10:01Z" changeset="41859282" uid="743479" user="fayor">
    <tag k="gfoss_id" v="5441"/>
    <tag k="name" v="Bisaccia"/>
    <tag k="place" v="village"/>
    <tag k="population" v="4391"/>
    <tag k="source" v="geodati.gfoss.it"/>
  </node>
  <node id="68569099" lat="41.2773665" lon="14.5428321" version="3" timestamp="2020-11-02T15:45:59Z" changeset="93428965" uid="1258547" user="Decan">
    <tag k="gfoss_id" v="5321"/>
    <tag k="name" v="San Lorenzello"/>
    <tag k="place" v="village"/>
    <tag k="population" v="2350"/>
    <tag k="source" v="geodati.gfoss.it"/>
  </node>
  <node id="68569307" lat="41.2452922" lon="14.8671548" version="3" timestamp="2023-08-29T18:57:35Z" changeset="140556087" uid="10622815" user="Italian Technology">
    <tag k="gfoss_id" v="5306"/>
    <tag k="name" v="Pago Veiano"/>
    <tag k="place" v="village"/>
    <tag k="population" v="2657"/>
    <tag k="source" v="geodati.gfoss.it"/>
    <tag k="source:population" v="wikipedia"/>
    <tag k="wikidata" v="Q55940"/>
    <tag k="wikipedia" v="it:Pago Veiano"/>
  </node>
  <node id="68579322" lat="41.3575184" lon="14.8090559" version="3" timestamp="2016-09-01T23:10:04Z" changeset="41859282" uid="743479" user="fayor">
    <tag k="gfoss_id" v="5284"/>
    <tag k="name" v="Circello"/>
    <tag k="place" v="village"/>
    <tag k="population" v="2673"/>
    <tag k="source" v="geodati.gfoss.it"/>
  </node>
  <node id="68579337" lat="41.3937260" lon="14.9728390" version="2" timestamp="2016-09-01T23:10:01Z" changeset="41859282" uid="743479" user="fayor">
    <tag k="gfoss_id" v="5267"/>
    <tag k="name" v="Baselice"/>
    <tag k="place" v="village"/>
    <tag k="population" v="2843"/>
    <tag k="source" v="geodati.gfoss.it"/>
  </node>
  <node id="68579578" lat="41.2906297" lon="14.9103428" version="4" timestamp="2021-06-19T15:27:02Z" changeset="106636727" uid="10622815" user="Italian Technology">
    <tag k="gfoss_id" v="5301"/>
    <tag k="name" v="Molinara"/>
    <tag k="place" v="village"/>
    <tag k="population" v="1536"/>
    <tag k="population:date" v="2020-01-01"/>
    <tag k="source" v="geodati.gfoss.it"/>
  </node>
  <node id="68579702" lat="41.0523895" lon="14.8563559" version="3" timestamp="2018-05-31T13:46:53Z" changeset="59430857" uid="1258547" user="Decan">
    <tag k="gfoss_id" v="5326"/>
    <tag k="name" v="San Nazzaro"/>
    <tag k="place" v="village"/>
    <tag k="population" v="805"/>
    <tag k="source" v="geodati.gfoss.it"/>
  </node>
  <node id="68579827" lat="41.3370190" lon="14.1311068" version="9" timestamp="2024-12-19T23:10:57Z" changeset="160413766" uid="3392826" user="Hugoren Martinako">
    <tag k="ele" v="168"/>
    <tag k="gfoss_id" v="5251"/>
    <tag k="name" v="Vairano Patenora"/>
    <tag k="place" v="village"/>
    <tag k="population" v="6259"/>
    <tag k="postal_code" v="81058"/>
    <tag k="source" v="geodati.gfoss.it"/>
    <tag k="wikidata" v="Q58918"/>
    <tag k="wikipedia" v="it:Vairano Patenora"/>
  </node>
  <node id="68579864" lat="41.3166705" lon="14.0424236" version="4" timestamp="2021-08-08T18:09:54Z" changeset="109357529" uid="166489" user="Fintocubano">
    <tag k="alt_name" v="Grottole"/>
    <tag k="gfoss_id" v="5206"/>
    <tag k="name" v="Marzano Appio"/>
    <tag k="place" v="village"/>
    <tag k="population" v="3087"/>
    <tag k="source" v="geodati.gfoss.it"/>
  </node>
  <node id="68579942" lat="41.1868150" lon="14.0937220" version="2" timestamp="2016-09-02T23:58:45Z" changeset="41879755" uid="743479" user="fayor">
    <tag k="gfoss_id" v="5245"/>
    <tag k="name" v="Sparanise"/>
    <tag k="place" v="village"/>
    <tag k="population" v="7269"/>
    <tag k="source" v="geodati.gfoss.it"/>
  </node>
  <node id="68580334" lat="41.0000120" lon="14.1607260" version="2" timestamp="2016-09-02T23:58:47Z" changeset="41879755" uid="743479" user="fayor">
    <tag k="gfoss_id" v="5254"/>
    <tag k="name" v="Villa di Briano"/>
    <tag k="place" v="village"/>
    <tag k="population" v="5703"/>
    <tag k="source" v="geodati.gfoss.it"/>
  </node>
  <node id="68580354" lat="41.4250210" lon="14.2550230" version="2" timestamp="2016-09-02T23:58:46Z" changeset="41879755" uid="743479" user="fayor">
    <tag k="gfoss_id" v="5252"/>
    <tag k="name" v="Valle Agricola"/>
    <tag k="place" v="village"/>
    <tag k="population" v="1121"/>
    <tag k="source" v="geodati.gfoss.it"/>
  </node>
  <node id="68580527" lat="41.4530220" lon="14.2554220" version="4" timestamp="2017-03-11T12:47:44Z" changeset="46761685" uid="354284" user="sbiribizio">
    <tag k="gfoss_id" v="5200"/>
    <tag k="name" v="Letino"/>
    <tag k="place" v="village"/>
    <tag k="population" v="783"/>
    <tag k="source" v="geodati.gfoss.it"/>
    <tag k="wikidata" v="Q58666"/>
    <tag k="wikipedia" v="it:Letino"/>
  </node>
  <node id="68580549" lat="41.0633140" lon="14.2737280" version="2" timestamp="2016-09-02T23:58:41Z" changeset="41879755" uid="743479" user="fayor">
    <tag k="gfoss_id" v="5203"/>
    <tag k="name" v="Macerata Campania"/>
    <tag k="place" v="town"/>
    <tag k="population" v="10609"/>
    <tag k="source" v="geodati.gfoss.it"/>
  </node>
  <node id="68580681" lat="40.9148130" lon="14.5467360" version="2" timestamp="2019-10-01T06:29:22Z" changeset="75130005" uid="478872" user="mcheck">
    <tag k="gfoss_id" v="5407"/>
    <tag k="name" v="San Paolo Bel Sito"/>
    <tag k="place" v="village"/>
    <tag k="population" v="3356"/>
    <tag k="source" v="geodati.gfoss.it"/>
  </node>
  <node id="68580730" lat="40.9541140" lon="14.5659360" version="2" timestamp="2016-08-31T23:04:20Z" changeset="41838072" uid="743479" user="fayor">
    <tag k="gfoss_id" v="5423"/>
    <tag k="name" v="Tufino"/>
    <tag k="place" v="village"/>
    <tag k="population" v="3247"/>
    <tag k="source" v="geodati.gfoss.it"/>
  </node>
  <node id="68580780" lat="40.9160130" lon="14.4857350" version="2" timestamp="2016-08-31T23:04:19Z" changeset="41838072" uid="743479" user="fayor">
    <tag k="gfoss_id" v="5415"/>
    <tag k="name" v="Scisciano"/>
    <tag k="place" v="village"/>
    <tag k="population" v="4881"/>
    <tag k="source" v="geodati.gfoss.it"/>
  </node>
  <node id="68580801" lat="40.9047130" lon="14.5659370" version="2" timestamp="2016-08-31T23:04:14Z" changeset="41838072" uid="743479" user="fayor">
    <tag k="gfoss_id" v="5378"/>
    <tag k="name" v="Liveri"/>
    <tag k="place" v="village"/>
    <tag k="population" v="1815"/>
    <tag k="source" v="geodati.gfoss.it"/>
  </node>
  <node id="68580808" lat="40.8976100" lon="14.1905280" version="25" timestamp="2024-04-09T12:03:20Z" changeset="149774377" uid="1778799" user="SomeoneElse_Revert">
    <tag k="gfoss_id" v="5379"/>
    <tag k="name" v="Marano di Napoli"/>
    <tag k="name:it" v="Marano di Napoli"/>
    <tag k="name:ru" v="Марано-ди-Наполи"/>
    <tag k="place" v="town"/>
    <tag k="population" v="59874"/>
    <tag k="postal_code" v="80016"/>
    <tag k="source" v="geodati.gfoss.it"/>
    <tag k="wikidata" v="Q72221"/>
    <tag k="wikipedia" v="it:Marano di Napoli"/>
  </node>
  <node id="68581024" lat="40.7092610" lon="13.8939191" version="5" timestamp="2016-09-20T16:11:15Z" changeset="42302787" uid="743479" user="fayor">
    <tag k="gfoss_id" v="5416"/>
    <tag k="name" v="Serrara"/>
    <tag k="place" v="village"/>
    <tag k="population" v="1697"/>
    <tag k="source" v="geodati.gfoss.it"/>
  </node>
  <node id="68581046" lat="40.8031110" lon="14.5390370" version="4" timestamp="2016-10-27T18:48:39Z" changeset="43225543" uid="2748195" user="karitotp">
    <tag k="gfoss_id" v="5393"/>
    <tag k="name" v="Poggiomarino"/>
    <tag k="place" v="town"/>
    <tag k="population" v="21976"/>
    <tag k="source" v="geodati.gfoss.it"/>
    <tag k="wikidata" v="Q72356"/>
  </node>
  <node id="68581313" lat="40.6336700" lon="14.6026095" version="52" timestamp="2025-07-17T19:12:04Z" changeset="169077064" uid="12495047" user="Yan Bakhmat">
    <tag k="gfoss_id" v="5555"/>
    <tag k="name" v="Amalfi"/>
    <tag k="name:ru" v="Амальфи"/>
    <tag k="name:uk" v="Амальфі"/>
    <tag k="name:zh" v="阿马尔菲"/>
    <tag k="place" v="village"/>
    <tag k="population" v="5428"/>
    <tag k="source" v="geodati.gfoss.it"/>
    <tag k="website" v="https://www.amalfi.com"/>
  </node>
  <node id="68581472" lat="40.8784110" lon="14.3429320" version="4" timestamp="2016-10-27T18:52:20Z" changeset="43225672" uid="2748195" user="karitotp">
    <tag k="gfoss_id" v="5427"/>
    <tag k="name" v="Volla"/>
    <tag k="place" v="town"/>
    <tag k="population" v="23755"/>
    <tag k="postal_code" v="80040"/>
    <tag k="source" v="geodati.gfoss.it"/>
    <tag k="wikidata" v="Q72783"/>
  </node>
  <node id="68581553" lat="40.6682153" lon="15.4815351" version="4" timestamp="2022-07-08T11:21:17Z" changeset="123358107" uid="2481418" user="tio-Jorge">
    <tag k="gfoss_id" v="5654"/>
    <tag k="name" v="Ricigliano"/>
    <tag k="place" v="village"/>
    <tag k="population" v="1339"/>
    <tag k="source" v="geodati.gfoss.it"/>
  </node>
  <node id="68581565" lat="40.1086620" lon="15.4333486" version="4" timestamp="2016-08-30T01:07:15Z" changeset="41791239" uid="743479" user="fayor">
    <tag k="gfoss_id" v="5656"/>
    <tag k="name" v="Roccagloriosa"/>
    <tag k="place" v="village"/>
    <tag k="population" v="1734"/>
    <tag k="source" v="geodati.gfoss.it"/>
  </node>
  <node id="68581589" lat="40.6271882" lon="15.4359594" version="5" timestamp="2016-08-28T18:58:40Z" changeset="41762146" uid="743479" user="fayor">
    <tag k="gfoss_id" v="5659"/>
    <tag k="name" v="Romagnano al Monte"/>
    <tag k="place" v="village"/>
    <tag k="population" v="415"/>
    <tag k="source" v="geodati.gfoss.it"/>
  </node>
  <node id="68581745" lat="40.6369080" lon="14.6075410" version="28" timestamp="2023-06-14T14:20:09Z" changeset="137329502" uid="1778799" user="SomeoneElse_Revert">
    <tag k="gfoss_id" v="5560"/>
    <tag k="name" v="Atrani"/>
    <tag k="place" v="village"/>
    <tag k="population" v="965"/>
    <tag k="source" v="geodati.gfoss.it"/>
  </node>
  <node id="68581830" lat="40.0873040" lon="15.5582690" version="2" timestamp="2016-08-30T01:07:10Z" changeset="41791239" uid="743479" user="fayor">
    <tag k="gfoss_id" v="5608"/>
    <tag k="name" v="Ispani"/>
    <tag k="place" v="village"/>
    <tag k="population" v="1015"/>
    <tag k="source" v="geodati.gfoss.it"/>
  </node>
  <node id="68581986" lat="40.3100055" lon="15.2526788" version="3" timestamp="2016-08-30T01:07:18Z" changeset="41791239" uid="743479" user="fayor">
    <tag k="gfoss_id" v="5694"/>
    <tag k="name" v="Stio"/>
    <tag k="place" v="village"/>
    <tag k="population" v="1088"/>
    <tag k="source" v="geodati.gfoss.it"/>
  </node>
  <node id="68582017" lat="40.2251050" lon="15.2883610" version="2" timestamp="2016-08-30T01:07:12Z" changeset="41791239" uid="743479" user="fayor">
    <tag k="gfoss_id" v="5629"/>
    <tag k="name" v="Novi Velia"/>
    <tag k="place" v="village"/>
    <tag k="population" v="2052"/>
    <tag k="source" v="geodati.gfoss.it"/>
  </node>
  <node id="68582049" lat="40.1507030" lon="15.3231630" version="2" timestamp="2016-08-30T01:07:10Z" changeset="41791239" uid="743479" user="fayor">
    <tag k="gfoss_id" v="5603"/>
    <tag k="name" v="Futani"/>
    <tag k="place" v="village"/>
    <tag k="population" v="1280"/>
    <tag k="source" v="geodati.gfoss.it"/>
  </node>
  <node id="68582065" lat="40.6489080" lon="14.6401410" version="28" timestamp="2023-06-14T14:25:49Z" changeset="137329502" uid="1778799" user="SomeoneElse_Revert">
    <tag k="gfoss_id" v="5615"/>
    <tag k="name" v="Maiori"/>
    <tag k="place" v="village"/>
    <tag k="population" v="5740"/>
    <tag k="source" v="geodati.gfoss.it"/>
  </node>
  <node id="68582070" lat="40.1623040" lon="15.3654630" version="2" timestamp="2016-08-30T01:07:11Z" changeset="41791239" uid="743479" user="fayor">
    <tag k="gfoss_id" v="5619"/>
    <tag k="name" v="Montano Antilia"/>
    <tag k="place" v="village"/>
    <tag k="population" v="2191"/>
    <tag k="source" v="geodati.gfoss.it"/>
  </node>
  <node id="68582247" lat="40.1002478" lon="15.5831154" version="3" timestamp="2016-08-30T01:07:19Z" changeset="41791239" uid="743479" user="fayor">
    <tag k="gfoss_id" v="5705"/>
    <tag k="name" v="Vibonati"/>
    <tag k="place" v="village"/>
    <tag k="population" v="3019"/>
    <tag k="source" v="geodati.gfoss.it"/>
  </node>
  <node id="68582421" lat="40.2997040" lon="15.0727550" version="3" timestamp="2016-08-30T01:07:15Z" changeset="41791239" uid="743479" user="fayor">
    <tag k="ele" v="371"/>
    <tag k="gfoss_id" v="5661"/>
    <tag k="name" v="Rutino"/>
    <tag k="place" v="village"/>
    <tag k="population" v="920"/>
    <tag k="source" v="geodati.gfoss.it"/>
  </node>
  <node id="68582428" lat="40.4345100" lon="15.4636620" version="3" timestamp="2023-08-24T13:17:06Z" changeset="140323157" uid="18063623" user="DomeF">
    <tag k="gfoss_id" v="5675"/>
    <tag k="name" v="San Rufo"/>
    <tag k="place" v="village"/>
    <tag k="population" v="1853"/>
    <tag k="postal_code" v="84030"/>
    <tag k="source" v="geodati.gfoss.it"/>
    <tag k="wikidata" v="Q81588"/>
    <tag k="wikipedia" v="it:San Rufo (Italia)"/>
  </node>
  <node id="68582467" lat="40.1229374" lon="15.2897501" version="3" timestamp="2011-06-10T20:21:58Z" changeset="8400586" uid="404532" user="jaimemd">
    <tag k="gfoss_id" v="5673"/>
    <tag k="is_in" v="Salerno, Campania, Italy"/>
    <tag k="name" v="San Mauro la Bruca"/>
    <tag k="place" v="village"/>
    <tag k="population" v="768"/>
    <tag k="source" v="geodati.gfoss.it"/>
  </node>
  <node id="70981477" lat="43.1864614" lon="13.4809705" version="4" timestamp="2016-09-09T17:36:38Z" changeset="42039680" uid="743479" user="fayor">
    <tag k="gfoss_id" v="4301"/>
    <tag k="name" v="Mogliano"/>
    <tag k="place" v="village"/>
    <tag k="population" v="4831"/>
    <tag k="source" v="geodati.gfoss.it"/>
  </node>
  <node id="70990465" lat="41.8236474" lon="14.5240787" version="3" timestamp="2016-09-07T16:52:18Z" changeset="41983597" uid="743479" user="fayor">
    <tag k="gfoss_id" v="5927"/>
    <tag k="name" v="Castelguidone"/>
    <tag k="place" v="village"/>
    <tag k="population" v="482"/>
    <tag k="source" v="geodati.gfoss.it"/>
  </node>
  <node id="70990615" lat="41.9785978" lon="14.6625131" version="4" timestamp="2021-06-09T16:03:18Z" changeset="106105962" uid="10622815" user="Italian Technology">
    <tag k="gfoss_id" v="5944"/>
    <tag k="name" v="Fresagrandinaria"/>
    <tag k="place" v="village"/>
    <tag k="population" v="1088"/>
    <tag k="source" v="geodati.gfoss.it"/>
  </node>
  <node id="70991611" lat="42.0366343" lon="14.4993554" version="3" timestamp="2021-02-02T14:56:12Z" changeset="98585630" uid="11455529" user="AlesCav">
    <tag k="gfoss_id" v="5922"/>
    <tag k="name" v="Casalanguida"/>
    <tag k="place" v="village"/>
    <tag k="population" v="1096"/>
    <tag k="source" v="geodati.gfoss.it"/>
  </node>
  <node id="70991922" lat="41.9394350" lon="14.5814230" version="2" timestamp="2016-09-07T16:52:23Z" changeset="41983597" uid="743479" user="fayor">
    <tag k="gfoss_id" v="5969"/>
    <tag k="name" v="Palmoli"/>
    <tag k="place" v="village"/>
    <tag k="population" v="1162"/>
    <tag k="source" v="geodati.gfoss.it"/>
  </node>
  <node id="70992512" lat="41.8861054" lon="13.4711263" version="4" timestamp="2023-12-19T04:00:48Z" changeset="145274562" uid="15981404" user="diamondarmorsteve">
    <tag k="gfoss_id" v="5741"/>
    <tag k="name" v="Civita d'Antino"/>
    <tag k="place" v="village"/>
    <tag k="population" v="1076"/>
    <tag k="source" v="geodati.gfoss.it"/>
    <tag k="wikidata" v="Q30024835"/>
  </node>
  <node id="70993237" lat="42.0492250" lon="13.0393870" version="5" timestamp="2025-02-05T09:04:07Z" changeset="162156381" uid="79364" user="klaus e werner">
    <tag k="gfoss_id" v="5769"/>
    <tag k="name" v="Oricola"/>
    <tag k="place" v="village"/>
    <tag k="population" v="950"/>
    <tag k="source" v="geodati.gfoss.it"/>
    <tag k="website" v="https://www.comune.oricola.aq.it/"/>
    <tag k="wikidata" v="Q33704120"/>
    <tag k="wikimedia_commons" v="Category:Oricola"/>
    <tag k="wikipedia" v="it:Oricola"/>
  </node>
  <node id="70993350" lat="42.2544596" lon="13.8846932" version="6" timestamp="2022-08-02T21:30:01Z" changeset="124410400" uid="1940323" user="SekeRob">
    <tag k="gfoss_id" v="5891"/>
    <tag k="name" v="Pescosansonesco"/>
    <tag k="note" v="Encountered multiple direction and city limit signs saying Pescosansonesco Nuovo"/>
    <tag k="place" v="village"/>
    <tag k="population" v="556"/>
    <tag k="source" v="geodati.gfoss.it"/>
    <tag k="source:name" v="sign at road"/>
    <tag k="wikidata" v="Q51377"/>
    <tag k="wikipedia" v="it:Pescosansonesco"/>
  </node>
  <node id="70993408" lat="42.2251370" lon="14.0111060" version="2" timestamp="2016-09-07T16:52:16Z" changeset="41983597" uid="743479" user="fayor">
    <tag k="gfoss_id" v="5863"/>
    <tag k="name" v="Abbateggio"/>
    <tag k="place" v="village"/>
    <tag k="population" v="420"/>
    <tag k="source" v="geodati.gfoss.it"/>
  </node>
  <node id="70993517" lat="42.2366404" lon="14.0369214" version="6" timestamp="2021-08-17T10:27:58Z" changeset="109802399" uid="1940323" user="SekeRob">
    <tag k="gfoss_id" v="5882"/>
    <tag k="name" v="Lettomanoppello"/>
    <tag k="place" v="village"/>
    <tag k="population" v="3090"/>
    <tag k="source" v="geodati.gfoss.it"/>
    <tag k="wikipedia" v="it:Lettomanoppello"/>
  </node>
  <node id="70993788" lat="42.4879400" lon="13.7116960" version="3" timestamp="2023-04-11T17:09:59Z" changeset="134783668" uid="1940323" user="SekeRob">
    <tag k="gfoss_id" v="5827"/>
    <tag k="name" v="Castelli"/>
    <tag k="place" v="village"/>
    <tag k="population" v="976"/>
    <tag k="source" v="geodati.gfoss.it"/>
    <tag k="website" v="https://italia.indettaglio.it/ita/abruzzo/castelli.html"/>
    <tag k="wikidata" v="Q51433"/>
    <tag k="wikipedia" v="it:Castelli (comune italiano)"/>
  </node>
  <node id="70993839" lat="42.5429410" lon="13.7163950" version="2" timestamp="2016-09-07T17:42:32Z" changeset="41985059" uid="743479" user="fayor">
    <tag k="gfoss_id" v="5825"/>
    <tag k="name" v="Castel Castagna"/>
    <tag k="place" v="village"/>
    <tag k="population" v="539"/>
    <tag k="source" v="geodati.gfoss.it"/>
  </node>
  <node id="70993865" lat="42.5873111" lon="13.8505254" version="4" timestamp="2020-07-08T10:16:00Z" changeset="87703327" uid="10124288" user="damianeue">
    <tag k="gfoss_id" v="5830"/>
    <tag k="name" v="Cellino Attanasio"/>
    <tag k="place" v="village"/>
    <tag k="population" v="2766"/>
    <tag k="source" v="geodati.gfoss.it"/>
    <tag k="wikidata" v="Q51437"/>
    <tag k="wikipedia" v="it:Cellino Attanasio"/>
  </node>
  <node id="72959853" lat="41.5090635" lon="13.4065751" version="7" timestamp="2025-05-25T13:58:18Z" changeset="166735865" uid="21792105" user="96wanderer">
    <tag k="gfoss_id" v="5088"/>
    <tag k="name" v="Castro dei Volsci"/>
    <tag k="place" v="village"/>
    <tag k="population" v="5039"/>
    <tag k="source" v="geodati.gfoss.it"/>
    <tag k="website" v="https://www.comune.castrodeivolsci.fr.it/"/>
    <tag k="wikidata" v="Q116660"/>
    <tag k="wikimedia_commons" v="Category:Castro dei Volsci"/>
    <tag k="wikipedia" v="it:Castro dei Volsci"/>
  </node>
  <node id="72960081" lat="41.5871200" lon="13.5851060" version="4" timestamp="2017-03-11T12:49:42Z" changeset="46761722" uid="354284" user="sbiribizio">
    <tag k="gfoss_id" v="5124"/>
    <tag k="name" v="Rocca d'Arce"/>
    <tag k="place" v="village"/>
    <tag k="population" v="1031"/>
    <tag k="source" v="geodati.gfoss.it"/>
    <tag k="wikidata" v="Q117204"/>
    <tag k="wikipedia" v="it:Rocca d'Arce"/>
  </node>
  <node id="72961250" lat="42.2095575" lon="12.7292119" version="34" timestamp="2024-09-10T21:42:18Z" changeset="156458785" uid="3643075" user="ASD Sabina Trekking">
    <tag k="alt_name" v="Fara Sabina"/>
    <tag k="gfoss_id" v="4865"/>
    <tag k="name" v="Fara in Sabina"/>
    <tag k="place" v="town"/>
    <tag k="population" v="13742"/>
    <tag k="source" v="geodati.gfoss.it"/>
    <tag k="uri:filas" v="http://193.178.216.227/ontoir-web/getRDF?fqName=urn:turismoculturale.itdc.filas-1.0.0-RC1%23turismoCulturale_POI_192"/>
    <tag k="wikidata" v="Q224131"/>
    <tag k="wikipedia" v="it:Fara in Sabina"/>
  </node>
  <node id="72961469" lat="42.2483103" lon="12.7522355" version="4" timestamp="2020-12-25T16:57:32Z" changeset="96429145" uid="5589496" user="willisturm">
    <tag k="ele" v="467"/>
    <tag k="name" v="Mompeo"/>
    <tag k="place" v="village"/>
    <tag k="population" v="530"/>
    <tag k="source" v="geodati.gfoss.it"/>
  </node>
  <node id="72962099" lat="42.2315237" lon="12.7429986" version="3" timestamp="2016-09-07T16:51:08Z" changeset="41983557" uid="743479" user="fayor">
    <tag k="gfoss_id" v="4852"/>
    <tag k="name" v="Castelnuovo di Farfa"/>
    <tag k="place" v="village"/>
    <tag k="population" v="929"/>
    <tag k="source" v="geodati.gfoss.it"/>
  </node>
  <node id="72962145" lat="42.4235300" lon="12.6421730" version="2" timestamp="2016-09-07T16:51:09Z" changeset="41983557" uid="743479" user="fayor">
    <tag k="gfoss_id" v="4862"/>
    <tag k="name" v="Configni"/>
    <tag k="place" v="village"/>
    <tag k="population" v="705"/>
    <tag k="source" v="geodati.gfoss.it"/>
  </node>
  <node id="72962321" lat="42.3207280" lon="12.6939760" version="2" timestamp="2016-09-07T16:51:15Z" changeset="41983557" uid="743479" user="fayor">
    <tag k="gfoss_id" v="4899"/>
    <tag k="name" v="Roccantica"/>
    <tag k="place" v="village"/>
    <tag k="population" v="631"/>
    <tag k="source" v="geodati.gfoss.it"/>
  </node>
  <node id="72962338" lat="42.2524280" lon="12.8441800" version="3" timestamp="2018-10-12T07:12:29Z" changeset="63444036" uid="3860151" user="Michele Aquilani">
    <tag k="gfoss_id" v="4894"/>
    <tag k="name" v="Poggio San Lorenzo"/>
    <tag k="place" v="village"/>
    <tag k="population" v="523"/>
    <tag k="source" v="geodati.gfoss.it"/>
    <tag k="wikidata" v="Q224328"/>
    <tag k="wikipedia" v="it:Poggio San Lorenzo"/>
  </node>
  <node id="72962554" lat="42.1253987" lon="12.5007367" version="5" timestamp="2024-01-22T11:09:13Z" changeset="146548369" uid="3860151" user="Michele Aquilani">
    <tag k="contact:facebook" v="https://www.facebook.com/comunecastelnuovodiporto/"/>
    <tag k="contact:instagram" v="https://www.instagram.com/comune_castelnuovodiporto/"/>
    <tag k="contact:twitter" v="https://mobile.twitter.com/castelnuovodp"/>
    <tag k="contact:youtube" v="https://m.youtube.com/channel/UC3u4QqBVTlpvwmYGstnarqg"/>
    <tag k="gfoss_id" v="4935"/>
    <tag k="name" v="Castelnuovo di Porto"/>
    <tag k="place" v="village"/>
    <tag k="population" v="8630"/>
    <tag k="source" v="geodati.gfoss.it"/>
    <tag k="website" v="http://www.comune.castelnuovodiporto.rm.it/"/>
    <tag k="wikidata" v="Q242126"/>
    <tag k="wikimedia_commons" v="Category:Castelnuovo di Porto"/>
    <tag k="wikipedia" v="it:Castelnuovo di Porto"/>
  </node>
  <node id="72962597" lat="41.9420762" lon="13.0373148" version="5" timestamp="2023-12-20T14:37:35Z" changeset="145334230" uid="3860151" user="Michele Aquilani">
    <tag k="gfoss_id" v="4928"/>
    <tag k="name" v="Canterano"/>
    <tag k="place" v="village"/>
    <tag k="population" v="372"/>
    <tag k="source" v="geodati.gfoss.it"/>
    <tag k="website" v="https://www.comune.canterano.rm.it/"/>
    <tag k="wikidata" v="Q241931"/>
    <tag k="wikimedia_commons" v="Category:Canterano"/>
    <tag k="wikipedia" v="it:Canterano"/>
  </node>
  <node id="72962857" lat="42.2577967" lon="12.5716266" version="4" timestamp="2023-09-18T14:04:24Z" changeset="141426987" uid="3860151" user="Michele Aquilani">
    <tag k="gfoss_id" v="4991"/>
    <tag k="name" v="Ponzano Romano"/>
    <tag k="place" v="village"/>
    <tag k="population" v="1028"/>
    <tag k="source" v="geodati.gfoss.it"/>
    <tag k="wikidata" v="Q243182"/>
    <tag k="wikimedia_commons" v="Category:Ponzano Romano"/>
    <tag k="wikipedia" v="it:Ponzano Romano"/>
  </node>
  <node id="72962874" lat="41.9060525" lon="12.9588880" version="6" timestamp="2023-11-25T15:59:27Z" changeset="144445542" uid="9451067" user="b-jazz-bot">
    <tag k="gfoss_id" v="4988"/>
    <tag k="name" v="Pisoniano"/>
    <tag k="place" v="village"/>
    <tag k="population" v="734"/>
    <tag k="source" v="geodati.gfoss.it"/>
    <tag k="website" v="https://comune.pisoniano.rm.it/"/>
    <tag k="wikidata" v="Q243152"/>
    <tag k="wikimedia_commons" v="Category:Pisoniano"/>
    <tag k="wikipedia" v="it:Pisoniano"/>
  </node>
  <node id="72963142" lat="41.8629967" lon="12.9518024" version="5" timestamp="2023-11-26T18:08:59Z" changeset="144480817" uid="3860151" user="Michele Aquilani">
    <tag k="gfoss_id" v="4930"/>
    <tag k="name" v="Capranica Prenestina"/>
    <tag k="place" v="village"/>
    <tag k="population" v="334"/>
    <tag k="source" v="geodati.gfoss.it"/>
    <tag k="website" v="https://www.comunecapranicaprenestina.it"/>
    <tag k="wikidata" v="Q241990"/>
    <tag k="wikimedia_commons" v="Category:Capranica Prenestina"/>
    <tag k="wikipedia" v="it:Capranica Prenestina"/>
  </node>
  <node id="72963435" lat="42.2347915" lon="12.5189050" version="4" timestamp="2023-09-18T14:04:24Z" changeset="141426987" uid="3860151" user="Michele Aquilani">
    <tag k="gfoss_id" v="5010"/>
    <tag k="name" v="Sant'Oreste"/>
    <tag k="place" v="village"/>
    <tag k="population" v="3536"/>
    <tag k="source" v="geodati.gfoss.it"/>
    <tag k="wikidata" v="Q243416"/>
    <tag k="wikimedia_commons" v="Category:Sant'Oreste"/>
    <tag k="wikipedia" v="it:Sant'Oreste (Italia)"/>
  </node>
  <node id="72963623" lat="42.0308068" lon="12.9233231" version="4" timestamp="2023-09-18T10:48:39Z" changeset="141418245" uid="3860151" user="Michele Aquilani">
    <tag k="gfoss_id" v="4964"/>
    <tag k="name" v="Mandela"/>
    <tag k="place" v="village"/>
    <tag k="population" v="771"/>
    <tag k="source" v="geodati.gfoss.it"/>
    <tag k="wikidata" v="Q242878"/>
    <tag k="wikimedia_commons" v="Category:Mandela (Italy)"/>
    <tag k="wikipedia" v="it:Mandela (Italia)"/>
  </node>
  <node id="72963697" lat="41.8873266" lon="12.8931264" version="4" timestamp="2023-12-20T14:37:35Z" changeset="145334230" uid="3860151" user="Michele Aquilani">
    <tag k="gfoss_id" v="4989"/>
    <tag k="name" v="Poli"/>
    <tag k="place" v="village"/>
    <tag k="population" v="2163"/>
    <tag k="source" v="geodati.gfoss.it"/>
    <tag k="website" v="https://www.comune.poli.rm.it/"/>
    <tag k="wikidata" v="Q243168"/>
    <tag k="wikimedia_commons" v="Category:Poli"/>
    <tag k="wikipedia" v="it:Poli (Italia)"/>
  </node>
  <node id="72963766" lat="42.6436919" lon="11.8548880" version="6" timestamp="2022-06-22T18:32:56Z" changeset="122723911" uid="4439645" user="gs3§zba">
    <tag k="gfoss_id" v="4806"/>
    <tag k="name" v="Gradoli"/>
    <tag k="place" v="village"/>
    <tag k="population" v="1496"/>
    <tag k="source" v="geodati.gfoss.it"/>
    <tag k="wikidata" v="Q30026182"/>
    <tag k="wikipedia" v="it:Gradoli"/>
  </node>
  <node id="1212265354" lat="46.6994802" lon="11.1694866" version="5" timestamp="2015-01-19T08:05:47Z" changeset="28247005" uid="2302962" user="Pathumthani">
    <tag k="ele" v="592"/>
    <tag k="gfoss_id" v="21264"/>
    <tag k="istat_id" v="2101410001"/>
    <tag k="name" v="Kuens - Caines"/>
    <tag k="name:de" v="Kuens"/>
    <tag k="name:it" v="Caines"/>
    <tag k="place" v="village"/>
    <tag k="population" v="196"/>
    <tag k="source" v="Istat 2001 - geodati.gfoss.it"/>
  </node>
  <node id="1435627520" lat="44.5164015" lon="8.3821606" version="5" timestamp="2023-01-17T19:56:40Z" changeset="131393953" uid="145231" user="woodpeck_repair">
    <tag k="gfoss_id" v="982"/>
    <tag k="name" v="Pareto"/>
    <tag k="place" v="village"/>
    <tag k="population" v="688"/>
    <tag k="source" v="geodati.gfoss.it"/>
  </node>
  <node id="1845214775" lat="42.6928561" lon="11.8163999" version="3" timestamp="2016-09-07T16:51:13Z" changeset="41983557" uid="743479" user="fayor">
    <tag k="name" v="Onano"/>
    <tag k="place" v="village"/>
    <tag k="population" v="995"/>
  </node>
  <node id="2663786391" lat="40.5074284" lon="15.8147487" version="4" timestamp="2023-08-22T09:47:17Z" changeset="140219416" uid="361003" user="Cascafico">
    <tag k="gfoss_id" v="6355"/>
    <tag k="name" v="Abriola"/>
    <tag k="place" v="village"/>
    <tag k="population" v="1542"/>
    <tag k="source" v="geodati.gfoss.it"/>
    <tag k="website" v="http://www.abriola.eu/"/>
    <tag k="wikidata" v="Q52510"/>
    <tag k="wikipedia" v="it:Abriola"/>
  </node>
  <node id="2673996091" lat="42.4059662" lon="12.6859706" version="1" timestamp="2014-02-16T01:09:33Z" changeset="20587632" uid="69717" user="kaitu">
    <tag k="name" v="Cottanello"/>
    <tag k="place" v="village"/>
    <tag k="population" v="572"/>
  </node>
  <node id="3828946382" lat="40.8193255" lon="15.5384276" version="4" timestamp="2016-08-24T21:51:12Z" changeset="41674017" uid="743479" user="fayor">
    <tag k="name" v="San Fele"/>
    <tag k="place" v="village"/>
    <tag k="population" v="2982"/>
  </node>

</osm>
